#dP2020  1 10  0  0  0.00000000      96 __u+U ITR00 FIT  IAC
## 2087 432000.00000000   900.00000000 58858 0.0000000000000
+  106   C06C07C08C09C10C11C12C13C14C16C19C20C21C22C23C24C25
+        C26C27C28C29C30C32C33C34C35C36C37E01E02E03E04E05E07
+        E08E09E11E12E13E14E15E18E19E21E24E25E26E27E30E31E33
+        E36G01G02G03G04G05G06G07G08G09G10G11G12G13G14G15G16
+        G17G18G19G20G21G22G23G24G25G26G27G28G29G30G31G32R01
+        R02R03R04R05R07R08R09R11R12R13R14R15R16R17R18R19R20
+        R21R22R23R26  0  0  0  0  0  0  0  0  0  0  0  0  0
++         8  9  9  8  8  8  8  9  7  8  8  8  8  8  8  8  8
++         8  8  8  8  8  8  8  8  9  8  8  4  4  4  4  4  4
++         4  4  4  4  4  4  4  4  4  4  4  4  4  4  4  4  4
++         4  3  3  3  4  3  3  3  3  0  3  3  3  4  3  4  3
++         3  3  3  3  3  3  3  3  4  3  3  3  3  3  3  3  6
++         5  5  5  5  5  5  5  5  5  6  5  5  6  6  5  6  6
++         5  5  5  8  0  0  0  0  0  0  0  0  0  0  0  0  0
%c M  cc GPS ccc cccc cccc cccc cccc ccccc ccccc ccccc ccccc
%c cc cc ccc ccc cccc cccc cccc cccc ccccc ccccc ccccc ccccc
%f  0.0000000  0.000000000  0.00000000000  0.000000000000000
%f  0.0000000  0.000000000  0.00000000000  0.000000000000000
%i    0    0    0    0      0      0      0      0         0
%i    0    0    0    0      0      0      0      0         0
/* INFORMATION & ANALYSIS CENTER (IAC)      ULTRA-RAPID DATA
/* S/V CLOCKS ARE ALIGNED TO GNSS TIME                      
/* G:C1WC2W R:C1PC2P E:C1XC5X C:C2IC6I J:C1CC2S             
/* PCV:IGS14_2082 OL/AL:FES2004  NONE     YN ORB:CoN CLK:CoN
*  2020 01 10  4  0  0.00000000
PC06 -14073.527041  21467.901625  33745.278592    264.395861
PC07 -22616.371551  35026.500053  -7622.360915    103.761213
PC08  -5341.285810  34009.013792 -24032.753383    -79.165272
PC09   1595.773135  25803.477265  33592.270024    250.307814
PC10 -10593.860475  35904.917998 -19601.319670   -545.461390
PC11  23610.932634   4639.026429  14152.720156   -111.943731
PC12  21732.757775  17093.918426  -3611.874078    308.149521
PC13   3435.429372  39901.962258 -12626.756064    198.733600
PC14  25582.394953  -5813.261697   9461.121457    412.854514
PC16 -11873.792120  21658.957300  34185.362767   -859.494045
PC19 -24939.151652  12519.045449   -618.286421    293.805666
PC20 -22577.063345  -1087.327389 -16371.502500   -536.069226
PC21   6632.119417  14531.187080  22894.117901     33.550061
PC22 -12907.768310  19071.871393  15777.361337   -653.095267
PC23   6201.269437 -26442.008291  -6425.304561   -871.172613
PC24  14891.690488   9137.792747 -21760.242353   -897.500047
PC25  14560.747907 -13060.598707 -19915.609969   -476.265671
PC26   7092.493447  24504.490333 -11277.063308    528.360032
PC27 -15103.228250 -20166.717801  11968.751889    257.880180
PC28   3253.785932 -16443.868203  22319.981374    248.851861
PC29 -19507.721551   3881.046290 -19572.368024    171.629665
PC30 -24972.902446 -11339.126273  -5088.625220    253.765256
PC32  -6758.734553 -14477.889109 -22870.895076   -855.513455
PC33  24895.263941 -12572.258094    713.186474   -766.291859
PC34  25003.201195  11161.966319   5451.209312   -378.758182
PC35  -2827.052790  16541.480036 -22294.216461   -750.644685
PC36 -14918.826026  12478.678307  20033.360126   -850.782560
PC37  -6163.435410 -25010.362332  10775.741368   -924.214502
PE01   -697.040949  24780.347523 -16167.340934   -770.425846
PE02    647.631885 -24761.333620  16219.734907    104.694514
PE03  -6530.548379 -16524.848605 -23682.140281   -253.389751
PE04  24892.184618   8449.909201  13605.160803   -442.431111
PE05  15877.987946 -14998.803213 -19981.550559   -415.390386
PE07 -28859.940355   4712.851468   4622.126358   -324.703482
PE08 -25069.672555  -8085.018060 -13519.202185   6236.940555
PE09  28794.831362  -4936.904724  -4714.266095   6193.668710
PE11  18309.137282   -187.364622  23264.067278    728.462709
PE12  20478.545094  18793.540286  10211.349753   6008.969346
PE13 -18333.948513     -9.355058 -23224.665724    397.222277
PE14 -16807.728309 -14957.766549  11140.425601   -862.309052
PE15 -20568.972343 -18558.903125 -10409.368896    881.362480
PE18   9739.689894  21450.168025 -20927.392833   -958.818763
PE19   4072.981400  16717.304423  24082.545676     -2.035236
PE21 -14425.636321  25790.584646   1659.431493   -576.160802
PE24  19948.901279 -11508.134385 -18619.983799   5671.063441
PE25  14479.436522 -25761.475485  -1751.904936   -500.745903
PE26  -5378.618526  18803.543004 -22203.904831   3664.211175
PE27 -19840.866700  11622.940476  18637.991873    306.889218
PE30 -13502.549683  -9524.712940  24552.825911   4236.755747
PE31  13585.843881   9293.161664 -24593.877751   -471.255722
PE33  10756.931682  26232.405203  -8496.226420   -471.053822
PE36   5348.577326 -18565.690412  22437.266255    613.274085
PG01  15076.839185   -240.340303  21690.383641   -257.564214
PG02 -13868.319638 -20740.486695  -8612.565515   -383.003893
PG03  21387.179814 -10746.032724  11355.263667    -69.312123
PG04  24428.174872   -637.109467 -10427.194689    -32.170678
PG05 -13160.281940  -8430.471649 -21622.533318     -5.888595
PG06  -6035.478398 -25780.307108   1920.509104   -178.016162
PG07   8001.388891 -17838.118045 -17469.215679   -188.776083
PG08  26043.930828   5822.265260    434.809668    -19.697286
PG09      0.000000      0.000000      0.000000 999999.999999
PG10  -7861.925635  21487.591870  13359.861233   -203.956759
PG11  19937.848148   2747.447554  16681.330001   -394.529775
PG12 -21272.866605   6261.911047  14269.428799    163.979825
PG13 -22175.958880 -13320.725138  -6322.767023    -20.988114
PG14  11902.456113  16762.661655  17242.977118    -39.704754
PG15 -26538.340689  -3383.225039    646.374595   -259.678875
PG16  11494.130129   9656.537848 -22134.424448   -111.983838
PG17   -778.451123 -15539.399534  21962.645778    195.951873
PG18  16631.571742   8441.382371  18441.385874    112.430278
PG19  -9085.219131 -16428.921961  18491.862329   -214.585692
PG20 -14201.176012  22158.760178   2523.566448    527.770741
PG21  -4294.870209  20718.641483 -15396.120140    -58.000718
PG22  19879.248421  -3747.138749  17374.006413   -781.371879
PG23  24200.351724  -2496.829161 -10746.004106   -144.095007
PG24 -16539.537269  -1458.737587  20606.934833     -7.397139
PG25 -19759.253592  17199.507128   3153.265558    -16.319749
PG26   3849.128844  17033.898598 -19976.808250    124.082388
PG27  21294.808747  12483.531451 -10340.940090   -176.588635
PG28   8343.199624 -20619.446510  15213.814552    746.111420
PG29 -18444.992738   6555.560028 -17990.085142     -3.624144
PG30    587.973580 -24911.707216  -8875.726639   -125.737089
PG31   7072.225978  25325.162560   -844.013557    -15.537299
PG32   2146.483874  15934.892401  21222.945280    180.607335
PR01   4902.735197 -12531.199998 -21671.870600     55.393264
PR02 -16288.501231  -4615.109583 -19024.308541    406.465629
PR03 -24571.596968   5125.947527  -4360.362517      7.958483
PR04 -18746.457660  11803.207462  12661.767481     34.870257
PR05  -2302.184535  11719.993617  22539.342586     42.831105
PR07  24660.344034  -5358.684724   3896.446150    -31.809227
PR08  18831.965661 -11783.321853 -12504.565610     13.196550
PR09   8540.588123  10124.525425 -21799.085750    110.631829
PR11   9812.937836 -21533.091784  -9458.806052     13.695725
PR12   2248.743516 -24362.960613   7292.014722     95.520873
PR13  -7097.445550 -13051.500781  20718.442665    -33.356117
PR14 -12068.987227   5693.516518  21751.024159     46.936236
PR15 -10109.442902  21022.642217  10330.988725    105.648964
PR16  -1515.005480  24225.370244  -7654.735575     -0.892038
PR17 -18056.637595  -6680.846975 -16737.937760    291.088482
PR18  -7454.022283   7389.492365 -23226.058779     21.013358
PR19   6390.888028  17479.505117 -17433.695190    -73.260445
PR20  18103.988451  17998.523269    410.022161   -401.124309
PR21  17656.173341   6020.236423  17392.068377    -97.276914
PR22   5219.494018  -9411.210912  23130.950367     -9.147771
PR23 -11480.541512 -18989.330106  12581.199452    278.803930
PR26  16957.840560  18677.160129  -3661.259689   -412.322992
EOF
